[{"OBJECT_NAME":"HULIANWANG DIGUI-166","OBJECT_ID":"2026-076C","EPOCH":"2026-04-11T21:42:12.203424","MEAN_MOTION":13.83321714,"ECCENTRICITY":0.0006312,"INCLINATION":86.4895,"RA_OF_ASC_NODE":67.253,"ARG_OF_PERICENTER":200.5961,"MEAN_ANOMALY":159.4953,"EPHEMERIS_TYPE":0,"CLASSIFICATION_TYPE":"U","NORAD_CAT_ID":68658,"ELEMENT_SET_NO":999,"REV_AT_EPOCH":43,"BSTAR":-0.0013112,"MEAN_MOTION_DOT":-1.422e-5,"MEAN_MOTION_DDOT":0},{"OBJECT_NAME":"HULIANWANG DIGUI-167","OBJECT_ID":"2026-076D","EPOCH":"2026-04-11T07:48:34.980768","MEAN_MOTION":13.83458885,"ECCENTRICITY":0.00059322,"INCLINATION":86.4955,"RA_OF_ASC_NODE":67.4769,"ARG_OF_PERICENTER":193.4495,"MEAN_ANOMALY":166.6515,"EPHEMERIS_TYPE":0,"CLASSIFICATION_TYPE":"U","NORAD_CAT_ID":68659,"ELEMENT_SET_NO":999,"REV_AT_EPOCH":35,"BSTAR":-8.1197289e-5,"MEAN_MOTION_DOT":-7.2e-7,"MEAN_MOTION_DDOT":0},{"OBJECT_NAME":"HULIANWANG DIGUI-168","OBJECT_ID":"2026-076E","EPOCH":"2026-04-11T19:57:24.017472","MEAN_MOTION":13.8353007,"ECCENTRICITY":0.00055205,"INCLINATION":86.4934,"RA_OF_ASC_NODE":67.2847,"ARG_OF_PERICENTER":190.8854,"MEAN_ANOMALY":169.2196,"EPHEMERIS_TYPE":0,"CLASSIFICATION_TYPE":"U","NORAD_CAT_ID":68660,"ELEMENT_SET_NO":999,"REV_AT_EPOCH":41,"BSTAR":-0.0014872488,"MEAN_MOTION_DOT":-1.621e-5,"MEAN_MOTION_DDOT":0},{"OBJECT_NAME":"CZ-6A R/B","OBJECT_ID":"2026-076F","EPOCH":"2026-04-12T06:34:43.531680","MEAN_MOTION":14.09391772,"ECCENTRICITY":0.01073741,"INCLINATION":86.5057,"RA_OF_ASC_NODE":67.0684,"ARG_OF_PERICENTER":100.1063,"MEAN_ANOMALY":261.2253,"EPHEMERIS_TYPE":0,"CLASSIFICATION_TYPE":"U","NORAD_CAT_ID":68661,"ELEMENT_SET_NO":999,"REV_AT_EPOCH":49,"BSTAR":1.9297642e-5,"MEAN_MOTION_DOT":5.5e-7,"MEAN_MOTION_DDOT":0},{"OBJECT_NAME":"GUOWANG TEST OBJECT A","OBJECT_ID":"2026-078A","EPOCH":"2026-04-12T07:53:27.790368","MEAN_MOTION":13.69158823,"ECCENTRICITY":0.00084369,"INCLINATION":86.4973,"RA_OF_ASC_NODE":305.6041,"ARG_OF_PERICENTER":287.7429,"MEAN_ANOMALY":72.2809,"EPHEMERIS_TYPE":0,"CLASSIFICATION_TYPE":"U","NORAD_CAT_ID":68687,"ELEMENT_SET_NO":999,"REV_AT_EPOCH":10,"BSTAR":-0.041176501,"MEAN_MOTION_DOT":-0.00035468,"MEAN_MOTION_DDOT":0},{"OBJECT_NAME":"GUOWANG TEST OBJECT B","OBJECT_ID":"2026-078B","EPOCH":"2026-04-12T07:09:34.010784","MEAN_MOTION":14.21571368,"ECCENTRICITY":0.0252681,"INCLINATION":86.5867,"RA_OF_ASC_NODE":305.6456,"ARG_OF_PERICENTER":22.6234,"MEAN_ANOMALY":338.586,"EPHEMERIS_TYPE":0,"CLASSIFICATION_TYPE":"U","NORAD_CAT_ID":68688,"ELEMENT_SET_NO":999,"REV_AT_EPOCH":10,"BSTAR":2.8325543e-5,"MEAN_MOTION_DOT":1.08e-6,"MEAN_MOTION_DDOT":0},{"OBJECT_NAME":"CYGNUS NG-24","OBJECT_ID":"2026-079A","EPOCH":"2026-04-12T06:59:40.312320","MEAN_MOTION":16.10282382,"ECCENTRICITY":0.00064639,"INCLINATION":51.6618,"RA_OF_ASC_NODE":266.5112,"ARG_OF_PERICENTER":290.6965,"MEAN_ANOMALY":69.3357,"EPHEMERIS_TYPE":0,"CLASSIFICATION_TYPE":"U","NORAD_CAT_ID":68689,"ELEMENT_SET_NO":999,"REV_AT_EPOCH":13,"BSTAR":0.00021455024,"MEAN_MOTION_DOT":0.0021007,"MEAN_MOTION_DDOT":3.2828943e-5},{"OBJECT_NAME":"GUOWANG TEST OBJECT C","OBJECT_ID":"2026-078C","EPOCH":"2026-04-12T06:38:03.446592","MEAN_MOTION":14.61688341,"ECCENTRICITY":0.04452515,"INCLINATION":86.6415,"RA_OF_ASC_NODE":305.6736,"ARG_OF_PERICENTER":23.9691,"MEAN_ANOMALY":338.1559,"EPHEMERIS_TYPE":0,"CLASSIFICATION_TYPE":"U","NORAD_CAT_ID":68690,"ELEMENT_SET_NO":999,"REV_AT_EPOCH":10,"BSTAR":0.0003081633,"MEAN_MOTION_DOT":6.793e-5,"MEAN_MOTION_DDOT":0}]
