HULIANWANG DIGUI-166
1 68658U 26101.90430556  1.42200-5 1.31120-3 0 0                     
2 68658  86.4895  67.2530 0006311 200.5961 159.4953 13.83321714      
HULIANWANG DIGUI-167
1 68659U 26101.32539352  7.20000-7 8.11973-5 0 0                     
2 68659  86.4955  67.4769 0005932 193.4495 166.6515 13.83458885      
HULIANWANG DIGUI-168
1 68660U 26101.83152778  1.62100-5 1.48725-3 0 0                     
2 68660  86.4934  67.2847 0005520 190.8854 169.2196 13.83530070      
GUOWANG TEST OBJECT A
1 68687U 26102.32878472  3.54680-4 4.11765-2 0 0                     
2 68687  86.4973 305.6041 0008436 287.7429  72.2809 13.69158823      
CYGNUS NG-24
1 68689U 26102.29143519  2.10070-3 2.14550-4 0 0                     
2 68689  51.6618 266.5112 0006463 290.6965  69.3357 16.10282382      
CZ-6A R/B
1 68661U 26102.27410880  5.50000-7 1.92976-5 0 0                     
2 68661  86.5057  67.0684 0107374 100.1063 261.2253 14.09391772      
GUOWANG TEST OBJECT B
1 68688U 26102.29831019  1.08000-6 2.83255-5 0 0                     
2 68688  86.5867 305.6456 0252681  22.6234 338.5860 14.21571368      
GUOWANG TEST OBJECT C
1 68690U 26102.27642361  6.79300-5 3.08163-4 0 0                     
2 68690  86.6415 305.6736 0445251  23.9691 338.1559 14.61688341      
